ONEWEB-0153             
1 48044U 21025C   24075.60991193 -.00000176  00000+0 -51573-3 0  9995
2 48044  87.8947 124.1731 0001957 100.6257 259.5092 13.13468818145439
ONEWEB-0154             
1 48045U 21025D   24075.14967107 -.00000038  00000+0 -13780-3 0  9998
2 48045  87.8939 124.2790 0001956  98.0402 262.0949 13.13469180145330
ONEWEB-0116             
1 48046U 21025E   24075.49564504  .00000210  00000+0  53983-3 0  9990
2 48046  87.8940 124.1758 0001995  90.9331 269.2027 13.13468682145524
ONEWEB-0150             
1 48047U 21025F   24075.16553759 -.00000226  00000+0 -65303-3 0  9993
2 48047  87.8935 124.2662 0002068 102.4449 257.6912 13.13468759145377
ONEWEB-0107             
1 48048U 21025G   24075.16712780 -.00000246  00000+0 -70946-3 0  9996
2 48048  87.8934 124.2637 0002097 107.7411 252.3947 13.13468930145357
ONEWEB-0101             
1 48049U 21025H   24075.51151767  .00000312  00000+0  81851-3 0  9997
2 48049  87.8942 124.2060 0001868  99.8431 260.2909 13.13468091145371
ONEWEB-0113             
1 48050U 21025J   24075.48929640 -.00000071  00000+0 -23034-3 0  9991
2 48050  87.8942 124.1933 0002092  94.5802 265.5566 13.13467836145457
ONEWEB-0112             
1 48051U 21025K   24075.17188761 -.00000163  00000+0 -48136-3 0  9991
2 48051  87.8934 124.2608 0002085  98.9709 261.1656 13.13468798145422
