<?xml version="1.0" encoding="UTF-8"?>
<ndm xmlns:xsi="http://www.w3.org/2001/XMLSchema-instance" xsi:noNamespaceSchemaLocation="https://sanaregistry.org/r/ndmxml_unqualified/ndmxml-2.0.0-master-2.0.xsd">
<omm id="CCSDS_OMM_VERS" version="2.0">
<header><CREATION_DATE/><ORIGINATOR/></header><body><segment><metadata><OBJECT_NAME>ONEWEB-0153</OBJECT_NAME><OBJECT_ID>2021-025C</OBJECT_ID><CENTER_NAME>EARTH</CENTER_NAME><REF_FRAME>TEME</REF_FRAME><TIME_SYSTEM>UTC</TIME_SYSTEM><MEAN_ELEMENT_THEORY>SGP4</MEAN_ELEMENT_THEORY></metadata><data><meanElements><EPOCH>2024-03-15T14:38:16.390752</EPOCH><MEAN_MOTION>13.13468818</MEAN_MOTION><ECCENTRICITY>.0001957</ECCENTRICITY><INCLINATION>87.8947</INCLINATION><RA_OF_ASC_NODE>124.1731</RA_OF_ASC_NODE><ARG_OF_PERICENTER>100.6257</ARG_OF_PERICENTER><MEAN_ANOMALY>259.5092</MEAN_ANOMALY></meanElements><tleParameters><EPHEMERIS_TYPE>0</EPHEMERIS_TYPE><CLASSIFICATION_TYPE>U</CLASSIFICATION_TYPE><NORAD_CAT_ID>48044</NORAD_CAT_ID><ELEMENT_SET_NO>999</ELEMENT_SET_NO><REV_AT_EPOCH>14543</REV_AT_EPOCH><BSTAR>-.51573E-3</BSTAR><MEAN_MOTION_DOT>-.176E-5</MEAN_MOTION_DOT><MEAN_MOTION_DDOT>0</MEAN_MOTION_DDOT></tleParameters></data></segment></body></omm>
<omm id="CCSDS_OMM_VERS" version="2.0">
<header><CREATION_DATE/><ORIGINATOR/></header><body><segment><metadata><OBJECT_NAME>ONEWEB-0154</OBJECT_NAME><OBJECT_ID>2021-025D</OBJECT_ID><CENTER_NAME>EARTH</CENTER_NAME><REF_FRAME>TEME</REF_FRAME><TIME_SYSTEM>UTC</TIME_SYSTEM><MEAN_ELEMENT_THEORY>SGP4</MEAN_ELEMENT_THEORY></metadata><data><meanElements><EPOCH>2024-03-15T03:35:31.580448</EPOCH><MEAN_MOTION>13.13469180</MEAN_MOTION><ECCENTRICITY>.0001956</ECCENTRICITY><INCLINATION>87.8939</INCLINATION><RA_OF_ASC_NODE>124.2790</RA_OF_ASC_NODE><ARG_OF_PERICENTER>98.0402</ARG_OF_PERICENTER><MEAN_ANOMALY>262.0949</MEAN_ANOMALY></meanElements><tleParameters><EPHEMERIS_TYPE>0</EPHEMERIS_TYPE><CLASSIFICATION_TYPE>U</CLASSIFICATION_TYPE><NORAD_CAT_ID>48045</NORAD_CAT_ID><ELEMENT_SET_NO>999</ELEMENT_SET_NO><REV_AT_EPOCH>14533</REV_AT_EPOCH><BSTAR>-.1378E-3</BSTAR><MEAN_MOTION_DOT>-.38E-6</MEAN_MOTION_DOT><MEAN_MOTION_DDOT>0</MEAN_MOTION_DDOT></tleParameters></data></segment></body></omm>
<omm id="CCSDS_OMM_VERS" version="2.0">
<header><CREATION_DATE/><ORIGINATOR/></header><body><segment><metadata><OBJECT_NAME>ONEWEB-0116</OBJECT_NAME><OBJECT_ID>2021-025E</OBJECT_ID><CENTER_NAME>EARTH</CENTER_NAME><REF_FRAME>TEME</REF_FRAME><TIME_SYSTEM>UTC</TIME_SYSTEM><MEAN_ELEMENT_THEORY>SGP4</MEAN_ELEMENT_THEORY></metadata><data><meanElements><EPOCH>2024-03-15T11:53:43.731456</EPOCH><MEAN_MOTION>13.13468682</MEAN_MOTION><ECCENTRICITY>.0001995</ECCENTRICITY><INCLINATION>87.8940</INCLINATION><RA_OF_ASC_NODE>124.1758</RA_OF_ASC_NODE><ARG_OF_PERICENTER>90.9331</ARG_OF_PERICENTER><MEAN_ANOMALY>269.2027</MEAN_ANOMALY></meanElements><tleParameters><EPHEMERIS_TYPE>0</EPHEMERIS_TYPE><CLASSIFICATION_TYPE>U</CLASSIFICATION_TYPE><NORAD_CAT_ID>48046</NORAD_CAT_ID><ELEMENT_SET_NO>999</ELEMENT_SET_NO><REV_AT_EPOCH>14552</REV_AT_EPOCH><BSTAR>.53983E-3</BSTAR><MEAN_MOTION_DOT>.21E-5</MEAN_MOTION_DOT><MEAN_MOTION_DDOT>0</MEAN_MOTION_DDOT></tleParameters></data></segment></body></omm>
<omm id="CCSDS_OMM_VERS" version="2.0">
<header><CREATION_DATE/><ORIGINATOR/></header><body><segment><metadata><OBJECT_NAME>ONEWEB-0150</OBJECT_NAME><OBJECT_ID>2021-025F</OBJECT_ID><CENTER_NAME>EARTH</CENTER_NAME><REF_FRAME>TEME</REF_FRAME><TIME_SYSTEM>UTC</TIME_SYSTEM><MEAN_ELEMENT_THEORY>SGP4</MEAN_ELEMENT_THEORY></metadata><data><meanElements><EPOCH>2024-03-15T03:58:22.447776</EPOCH><MEAN_MOTION>13.13468759</MEAN_MOTION><ECCENTRICITY>.0002068</ECCENTRICITY><INCLINATION>87.8935</INCLINATION><RA_OF_ASC_NODE>124.2662</RA_OF_ASC_NODE><ARG_OF_PERICENTER>102.4449</ARG_OF_PERICENTER><MEAN_ANOMALY>257.6912</MEAN_ANOMALY></meanElements><tleParameters><EPHEMERIS_TYPE>0</EPHEMERIS_TYPE><CLASSIFICATION_TYPE>U</CLASSIFICATION_TYPE><NORAD_CAT_ID>48047</NORAD_CAT_ID><ELEMENT_SET_NO>999</ELEMENT_SET_NO><REV_AT_EPOCH>14537</REV_AT_EPOCH><BSTAR>-.65303E-3</BSTAR><MEAN_MOTION_DOT>-.226E-5</MEAN_MOTION_DOT><MEAN_MOTION_DDOT>0</MEAN_MOTION_DDOT></tleParameters></data></segment></body></omm>
<omm id="CCSDS_OMM_VERS" version="2.0">
<header><CREATION_DATE/><ORIGINATOR/></header><body><segment><metadata><OBJECT_NAME>ONEWEB-0107</OBJECT_NAME><OBJECT_ID>2021-025G</OBJECT_ID><CENTER_NAME>EARTH</CENTER_NAME><REF_FRAME>TEME</REF_FRAME><TIME_SYSTEM>UTC</TIME_SYSTEM><MEAN_ELEMENT_THEORY>SGP4</MEAN_ELEMENT_THEORY></metadata><data><meanElements><EPOCH>2024-03-15T04:00:39.841920</EPOCH><MEAN_MOTION>13.13468930</MEAN_MOTION><ECCENTRICITY>.0002097</ECCENTRICITY><INCLINATION>87.8934</INCLINATION><RA_OF_ASC_NODE>124.2637</RA_OF_ASC_NODE><ARG_OF_PERICENTER>107.7411</ARG_OF_PERICENTER><MEAN_ANOMALY>252.3947</MEAN_ANOMALY></meanElements><tleParameters><EPHEMERIS_TYPE>0</EPHEMERIS_TYPE><CLASSIFICATION_TYPE>U</CLASSIFICATION_TYPE><NORAD_CAT_ID>48048</NORAD_CAT_ID><ELEMENT_SET_NO>999</ELEMENT_SET_NO><REV_AT_EPOCH>14535</REV_AT_EPOCH><BSTAR>-.70946E-3</BSTAR><MEAN_MOTION_DOT>-.246E-5</MEAN_MOTION_DOT><MEAN_MOTION_DDOT>0</MEAN_MOTION_DDOT></tleParameters></data></segment></body></omm>
<omm id="CCSDS_OMM_VERS" version="2.0">
<header><CREATION_DATE/><ORIGINATOR/></header><body><segment><metadata><OBJECT_NAME>ONEWEB-0101</OBJECT_NAME><OBJECT_ID>2021-025H</OBJECT_ID><CENTER_NAME>EARTH</CENTER_NAME><REF_FRAME>TEME</REF_FRAME><TIME_SYSTEM>UTC</TIME_SYSTEM><MEAN_ELEMENT_THEORY>SGP4</MEAN_ELEMENT_THEORY></metadata><data><meanElements><EPOCH>2024-03-15T12:16:35.126688</EPOCH><MEAN_MOTION>13.13468091</MEAN_MOTION><ECCENTRICITY>.0001868</ECCENTRICITY><INCLINATION>87.8942</INCLINATION><RA_OF_ASC_NODE>124.2060</RA_OF_ASC_NODE><ARG_OF_PERICENTER>99.8431</ARG_OF_PERICENTER><MEAN_ANOMALY>260.2909</MEAN_ANOMALY></meanElements><tleParameters><EPHEMERIS_TYPE>0</EPHEMERIS_TYPE><CLASSIFICATION_TYPE>U</CLASSIFICATION_TYPE><NORAD_CAT_ID>48049</NORAD_CAT_ID><ELEMENT_SET_NO>999</ELEMENT_SET_NO><REV_AT_EPOCH>14537</REV_AT_EPOCH><BSTAR>.81851E-3</BSTAR><MEAN_MOTION_DOT>.312E-5</MEAN_MOTION_DOT><MEAN_MOTION_DDOT>0</MEAN_MOTION_DDOT></tleParameters></data></segment></body></omm>
<omm id="CCSDS_OMM_VERS" version="2.0">
<header><CREATION_DATE/><ORIGINATOR/></header><body><segment><metadata><OBJECT_NAME>ONEWEB-0113</OBJECT_NAME><OBJECT_ID>2021-025J</OBJECT_ID><CENTER_NAME>EARTH</CENTER_NAME><REF_FRAME>TEME</REF_FRAME><TIME_SYSTEM>UTC</TIME_SYSTEM><MEAN_ELEMENT_THEORY>SGP4</MEAN_ELEMENT_THEORY></metadata><data><meanElements><EPOCH>2024-03-15T11:44:35.208960</EPOCH><MEAN_MOTION>13.13467836</MEAN_MOTION><ECCENTRICITY>.0002092</ECCENTRICITY><INCLINATION>87.8942</INCLINATION><RA_OF_ASC_NODE>124.1933</RA_OF_ASC_NODE><ARG_OF_PERICENTER>94.5802</ARG_OF_PERICENTER><MEAN_ANOMALY>265.5566</MEAN_ANOMALY></meanElements><tleParameters><EPHEMERIS_TYPE>0</EPHEMERIS_TYPE><CLASSIFICATION_TYPE>U</CLASSIFICATION_TYPE><NORAD_CAT_ID>48050</NORAD_CAT_ID><ELEMENT_SET_NO>999</ELEMENT_SET_NO><REV_AT_EPOCH>14545</REV_AT_EPOCH><BSTAR>-.23034E-3</BSTAR><MEAN_MOTION_DOT>-.71E-6</MEAN_MOTION_DOT><MEAN_MOTION_DDOT>0</MEAN_MOTION_DDOT></tleParameters></data></segment></body></omm>
<omm id="CCSDS_OMM_VERS" version="2.0">
<header><CREATION_DATE/><ORIGINATOR/></header><body><segment><metadata><OBJECT_NAME>ONEWEB-0112</OBJECT_NAME><OBJECT_ID>2021-025K</OBJECT_ID><CENTER_NAME>EARTH</CENTER_NAME><REF_FRAME>TEME</REF_FRAME><TIME_SYSTEM>UTC</TIME_SYSTEM><MEAN_ELEMENT_THEORY>SGP4</MEAN_ELEMENT_THEORY></metadata><data><meanElements><EPOCH>2024-03-15T04:07:31.089504</EPOCH><MEAN_MOTION>13.13468798</MEAN_MOTION><ECCENTRICITY>.0002085</ECCENTRICITY><INCLINATION>87.8934</INCLINATION><RA_OF_ASC_NODE>124.2608</RA_OF_ASC_NODE><ARG_OF_PERICENTER>98.9709</ARG_OF_PERICENTER><MEAN_ANOMALY>261.1656</MEAN_ANOMALY></meanElements><tleParameters><EPHEMERIS_TYPE>0</EPHEMERIS_TYPE><CLASSIFICATION_TYPE>U</CLASSIFICATION_TYPE><NORAD_CAT_ID>48051</NORAD_CAT_ID><ELEMENT_SET_NO>999</ELEMENT_SET_NO><REV_AT_EPOCH>14542</REV_AT_EPOCH><BSTAR>-.48136E-3</BSTAR><MEAN_MOTION_DOT>-.163E-5</MEAN_MOTION_DOT><MEAN_MOTION_DDOT>0</MEAN_MOTION_DDOT></tleParameters></data></segment></body></omm>

</ndm>
